[{"OBJECT_NAME":"ONEWEB-0101","OBJECT_ID":"2021-025H","EPOCH":"2026-03-09T17:33:47.340288","MEAN_MOTION":13.1347,"ECCENTRICITY":0.00018742,"INCLINATION":87.9034,"RA_OF_ASC_NODE":340.0139,"ARG_OF_PERICENTER":80.2754,"MEAN_ANOMALY":279.8587,"EPHEMERIS_TYPE":0,"CLASSIFICATION_TYPE":"U","NORAD_CAT_ID":48049,"ELEMENT_SET_NO":999,"REV_AT_EPOCH":24044,"BSTAR":0.0007309078,"MEAN_MOTION_DOT":2.8e-6,"MEAN_MOTION_DDOT":0},{"OBJECT_NAME":"COSMOS 2499 DEB","OBJECT_ID":"2014-028BZ","EPOCH":"2026-02-23T23:27:56.662560","MEAN_MOTION":12.96075568,"ECCENTRICITY":0.02305075,"INCLINATION":82.4812,"RA_OF_ASC_NODE":317.1335,"ARG_OF_PERICENTER":200.3831,"MEAN_ANOMALY":158.7966,"EPHEMERIS_TYPE":0,"CLASSIFICATION_TYPE":"U","NORAD_CAT_ID":60613,"ELEMENT_SET_NO":999,"REV_AT_EPOCH":13220,"BSTAR":0.008015025,"MEAN_MOTION_DOT":2.586e-5,"MEAN_MOTION_DDOT":0}]
